NORAD_CAT_ID,OBJECT_NAME,OBJECT_TYPE,EPOCH,MEAN_MOTION,ECCENTRICITY,INCLINATION,RA_OF_ASC_NODE,ARG_OF_PERICENTER,MEAN_ANOMALY,BSTAR,MEAN_MOTION_DOT,MEAN_MOTION_DDOT,TLE_LINE0,TLE_LINE1,TLE_LINE2,SEMIMAJOR_AXIS,PERIOD,APOGEE,PERIGEE,DECAYED
52864.0,STARLINK-4267,PAYLOAD,2022-06-22 16:00:00,15.90794473,0.0041106,53.2176,20.1024,56.1247,199.4558,-0.0024756,-0.00857047,0.00022895,0 STARLINK-4267,1 52864U 22062AL  22173.66667824 -.00857047  22895-3 -24756-2 0  9995,2 52864  53.2176  20.1024 0041106  56.1247 199.4558 15.90794473  1301,6678.195,90.521,327.512,272.60900000000004,0.0
52864.0,STARLINK-4267,PAYLOAD,2022-06-23 06:00:00,15.89831672,0.0035284999999999,53.2174,17.1422,57.5028,299.6745,-0.0025714,-0.0082936,0.00021384,0 STARLINK-4267,1 52864U 22062AL  22174.25001157 -.00829360  21384-3 -25714-2 0  9996,2 52864  53.2174  17.1422 0035285  57.5028 299.6745 15.89831672  1391,6680.891,90.576,326.33,279.183,0.0
52864.0,STARLINK-4267,PAYLOAD,2022-06-23 14:00:01,15.89276448,0.0033464,53.2177,15.4514,57.8527,47.9141,-0.0025738,-0.00802281,0.00020041,0 STARLINK-4267,1 52864U 22062AL  22174.58334491 -.00802281  20041-3 -25738-2 0  9990,2 52864  53.2177  15.4514 0033464  57.8527  47.9141 15.89276448  1445,6682.446999999999,90.607,326.6740000000001,281.95,0.0
52864.0,STARLINK-4267,PAYLOAD,2022-06-23 22:00:00,15.88755265,0.003039,53.2177,13.7651,57.9364,155.7546,-0.0028156999999999,-0.00846682,0.00021969,0 STARLINK-4267,1 52864U 22062AL  22174.91667824 -.00846682  21969-3 -28157-2 0  9997,2 52864  53.2177  13.7651 0030390  57.9364 155.7546 15.88755265  1493,6683.909000000002,90.637,326.086,285.461,0.0
52864.0,STARLINK-4267,PAYLOAD,2022-06-24 06:00:02,15.88213569,0.0027918,53.2174,12.0764,57.5791,263.46,-0.0029195,-0.00848642,0.00021949,0 STARLINK-4267,1 52864U 22062AL  22175.25002315 -.00848642  21949-3 -29195-2 0  9992,2 52864  53.2174  12.0764 0027918  57.5791 263.4600 15.88213569  1550,6685.428000000001,90.668,325.958,288.629,0.0
52864.0,STARLINK-4267,PAYLOAD,2022-06-24 14:00:01,15.87650588,0.0025633,53.2175,10.3901,59.2582,8.3512,-0.0028667,-0.00806061,0.00019906,0 STARLINK-4267,1 52864U 22062AL  22175.58334491 -.00806061  19906-3 -28667-2 0  9993,2 52864  53.2175  10.3901 0025633  59.2582   8.3512 15.87650588  1300,6687.009,90.7,326.015,291.733,0.0
52864.0,STARLINK-4267,PAYLOAD,2022-06-24 20:00:01,15.87247635,0.0023334,53.2173,9.1284,59.4819,357.6688,-0.0029674,-0.00813732,0.00020171,0 STARLINK-4267,1 52864U 22062AL  22175.83334491 -.00813732  20171-3 -29674-2 0  9999,2 52864  53.2173   9.1284 0023334  59.4819 357.6688 15.87247635  1645,6688.14,90.723,325.612,294.399,0.0
52864.0,STARLINK-4267,PAYLOAD,2022-06-24 22:00:01,15.87118598,0.0022868,53.2176,8.7076,59.3439,114.3038,-0.0030404,-0.00827535,0.00020765,0 STARLINK-4267,1 52864U 22062AL  22175.91668981 -.00827535  20765-3 -30404-2 0  9990,2 52864  53.2176   8.7076 0022868  59.3439 114.3038 15.87118598  1305,6688.503000000002,90.73,325.663,295.073,0.0
52864.0,STARLINK-4267,PAYLOAD,2022-06-25 14:00:01,15.8603224,0.001805,53.2178,5.3408,59.8387,323.7434,-0.0032239,-0.00760643,0.0,0 STARLINK-4267,1 52864U 22062AL  22176.58334491 -.00760643  00000-0 -32239-2 0  9991,2 52864  53.2178   5.3408 0018050  59.8387 323.7434 15.86032240  1768,6691.557,90.793,325.5,301.344,0.0
52864.0,STARLINK-4267,PAYLOAD,2022-06-25 22:00:00,15.85483053,0.0015473,53.2175,3.6624,59.0505,68.5541,-0.0032669,-0.0074801,0.0,0 STARLINK-4267,1 52864U 22062AL  22176.91667824 -.00748010  00000-0 -32669-2 0  9998,2 52864  53.2175   3.6624 0015473  59.0505  68.5541 15.85483053  1300,6693.102,90.824,325.323,304.611,0.0
52864.0,STARLINK-4267,PAYLOAD,2022-06-26 14:00:01,15.84414784,0.001065,53.2177,0.3035,56.7069,277.0465,-0.0036072,-0.00776507,0.0,0 STARLINK-4267,1 52864U 22062AL  22177.58335648 -.00776507  00000-0 -36072-2 0  9992,2 52864  53.2177   0.3035 0010650  56.7069 277.0465 15.84414784  1927,6696.11,90.885,325.106,310.844,0.0
52864.0,STARLINK-4267,PAYLOAD,2022-06-26 22:00:00,15.83854113,0.0008015,53.2176,358.629,52.74,23.0184,-0.003547,-0.00743888,0.0,0 STARLINK-4267,1 52864U 22062AL  22177.91667824 -.00743888  00000-0 -35470-2 0  9990,2 52864  53.2176 358.6290 0008015  52.7400  23.0184 15.83854113  1307,6697.69,90.917,324.923,314.187,0.0
52864.0,STARLINK-4267,PAYLOAD,2022-06-27 06:00:00,15.83324199,0.000571,53.2176,356.952,46.2041,130.9649,-0.0037577,-0.00765036,0.0,0 STARLINK-4267,1 52864U 22062AL  22178.25001157 -.00765036  00000-0 -37577-2 0  9998,2 52864  53.2176 356.9520 0005710  46.2041 130.9649 15.83324199  2022,6699.185,90.948,324.875,317.224,0.0
52864.0,STARLINK-4267,PAYLOAD,2022-06-27 14:00:01,15.82791787,0.0004,53.2176,355.2785,35.8035,242.1239,-0.0039539,-0.00782384,0.0,0 STARLINK-4267,1 52864U 22062AL  22178.58334491 -.00782384  00000-0 -39539-2 0  9999,2 52864  53.2176 355.2785 0004000  35.8035 242.1239 15.82791787  1306,6700.687,90.978,325.232,319.871,0.0
52864.0,STARLINK-4267,PAYLOAD,2022-06-27 22:00:00,15.82237432,0.0002993,53.2173,353.6079,15.7304,2.3102,-0.0039442,-0.00761661,0.0,0 STARLINK-4267,1 52864U 22062AL  22178.91667824 -.00761661  00000-0 -39442-2 0  9993,2 52864  53.2173 353.6079 0002993  15.7304   2.3102 15.82237432  2135,6702.252,91.01,326.123,322.111,0.0
52864.0,STARLINK-4267,PAYLOAD,2022-06-28 14:00:01,15.811543099999998,0.0002869,53.2178,350.2654,12.4373,203.8681,-0.0041662,-0.00764405,0.0,0 STARLINK-4267,1 52864U 22062AL  22179.58334491 -.00764405  00000-0 -41662-2 0  9994,2 52864  53.2178 350.2654 0002869  12.4373 203.8681 15.81154310  1304,6705.312,91.073,329.101,325.253,0.0
52864.0,STARLINK-4267,PAYLOAD,2022-06-28 22:00:00,15.80610464,0.0002651,53.2175,348.5986,11.1649,303.2941,-0.0042568,-0.00761686,0.0,0 STARLINK-4267,1 52864U 22062AL  22179.91667824 -.00761686  00000-0 -42568-2 0  9994,2 52864  53.2175 348.5986 0002651  11.1649 303.2941 15.80610464  1300,6706.85,91.104,330.49300000000005,326.937,0.0
52864.0,STARLINK-4267,PAYLOAD,2022-06-29 14:00:01,15.79527484,0.0003379,53.2175,345.2642,357.8012,151.0654,-0.0044973,-0.00765456,0.0,0 STARLINK-4267,1 52864U 22062AL  22180.58334491 -.00765456  00000-0 -44973-2 0  9991,2 52864  53.2175 345.2642 0003379 357.8012 151.0654 15.79527484  1302,6709.915,91.167,334.048,329.5130000000001,0.0
52864.0,STARLINK-4267,PAYLOAD,2022-06-29 22:00:00,15.78972547,0.000277,53.2173,343.6014,279.337,325.7317,-0.0044699,-0.00743415,0.0,0 STARLINK-4267,1 52864U 22062AL  22180.91667824 -.00743415  00000-0 -44699-2 0  9993,2 52864  53.2173 343.6014 0002770 279.3370 325.7317 15.78972547  1303,6711.488,91.199,335.212,331.49300000000005,0.0
52864.0,STARLINK-4267,PAYLOAD,2022-06-30 14:00:01,15.778999800000005,0.0001512,53.2177,340.2753,29.4123,46.0944,-0.0048407,-0.00764527,0.0,0 STARLINK-4267,1 52864U 22062AL  22181.58334491 -.00764527  00000-0 -48407-2 0  9996,2 52864  53.2177 340.2753 0001512  29.4123  46.0944 15.77899980  1300,6714.529,91.261,337.409,335.3780000000001,0.0
52864.0,STARLINK-4267,PAYLOAD,2022-06-30 22:00:00,15.77352439,0.0001409,53.2173,338.6161,47.7934,121.9571,-0.0048964,-0.00755295,0.0,0 STARLINK-4267,1 52864U 22062AL  22181.91667824 -.00755295  00000-0 -48964-2 0  9992,2 52864  53.2173 338.6161 0001409  47.7934 121.9571 15.77352439  1300,6716.081999999999,91.292,338.894,337.001,0.0
52864.0,STARLINK-4267,PAYLOAD,2022-07-01 14:00:01,15.76272235,0.0001344,53.2175,335.298,43.3881,312.8917,-0.0052012,-0.0076374,0.0,0 STARLINK-4267,1 52864U 22062AL  22182.58334491 -.00763740  00000-0 -52012-2 0  9990,2 52864  53.2175 335.2980 0001344  43.3881 312.8917 15.76272235  1304,6719.15,91.355,341.918,340.112,0.0
52864.0,STARLINK-4267,PAYLOAD,2022-07-01 22:00:00,15.75727587,0.0001153,53.2172,333.6428,58.4599,30.1071,-0.0052941,-0.00759204,0.0,0 STARLINK-4267,1 52864U 22062AL  22182.91667824 -.00759204  00000-0 -52941-2 0  9997,2 52864  53.2172 333.6428 0001153  58.4599  30.1071 15.75727587  2767,6720.699000000001,91.386,343.338,341.789,0.0
52864.0,STARLINK-4267,PAYLOAD,2022-07-02 14:00:01,15.746431,0.000149,53.2177,330.3331,42.1841,229.0021,-0.0055623,-0.00760494,0.0,0 STARLINK-4267,1 52864U 22062AL  22183.58334491 -.00760494  00000-0 -55623-2 0  9995,2 52864  53.2177 330.3331 0001490  42.1841 229.0021 15.74643100  1303,6723.784000000002,91.449,346.651,344.647,0.0
52864.0,STARLINK-4267,PAYLOAD,2022-07-02 22:00:00,15.74099923,0.0001088,53.2171,328.6815,52.4114,309.1057,-0.0056808,-0.00758571,0.0,0 STARLINK-4267,1 52864U 22062AL  22183.91667824 -.00758571  00000-0 -56808-2 0  9990,2 52864  53.2171 328.6815 0001088  52.4114 309.1057 15.74099923  2920,6725.331,91.481,347.927,346.464,0.0
52864.0,STARLINK-4267,PAYLOAD,2022-07-03 14:00:01,15.73202526,0.0001450999999999,53.2174,325.3797,44.9793,135.3497,2.537300000000001e-05,2.942e-05,0.0,0 STARLINK-4267,1 52864U 22062AL  22184.58334491  .00002942  00000-0  25373-4 0  9992,2 52864  53.2174 325.3797 0001451  44.9793 135.3497 15.73202526  3022,6727.888000000001,91.533,350.72900000000016,348.777,0.0
52864.0,STARLINK-4267,PAYLOAD,2022-07-03 22:00:00,15.73248524,0.0001595999999999,53.216,323.7329,39.071,230.2381,-0.00011335,-0.00016531,0.0,0 STARLINK-4267,1 52864U 22062AL  22184.91667824 -.00016531  00000-0 -11335-3 0  9991,2 52864  53.2160 323.7329 0001596  39.0710 230.2381 15.73248524  3085,6727.757,91.53,350.696,348.548,0.0
52864.0,STARLINK-4267,PAYLOAD,2022-07-04 14:00:01,15.73215757,0.0001706,53.2163,320.4333,44.6972,42.5447,-0.00028012,-0.00039776,0.0,0 STARLINK-4267,1 52864U 22062AL  22185.58334491 -.00039776  00000-0 -28012-3 0  9992,2 52864  53.2163 320.4333 0001706  44.6972  42.5447 15.73215757  1304,6727.85,91.532,350.86300000000006,348.56699999999995,0.0
52864.0,STARLINK-4267,PAYLOAD,2022-07-04 22:00:00,15.73211662,0.0001748,53.2155,318.7842,37.754,138.4432,-0.00027652,-0.00039269,0.0,0 STARLINK-4267,1 52864U 22062AL  22185.91667824 -.00039269  00000-0 -27652-3 0  9994,2 52864  53.2155 318.7842 0001748  37.7540 138.4432 15.73211662  1300,6727.861999999999,91.533,350.903,348.551,0.0
